GLOBALSTAR M024         
1 25883U 99043A   26065.46972270 -.00000039  00000+0  90346-3 0  9994
2 25883  52.0012 148.8184 0002182 156.7993 216.7677 11.10172167143994
GLOBALSTAR M027         
1 25884U 99043B   26065.43893905 -.00000048  00000+0  60737-3 0  9990
2 25884  52.0187 234.3013 0021906  56.7313 303.5575 11.04373590170213
GLOBALSTAR M054         
1 25885U 99043C   26065.63862659 -.00000052  00000+0  48472-3 0  9992
2 25885  52.0164 317.1114 0004040 272.9018  99.4225 11.39224898148969
GLOBALSTAR M053         
1 25886U 99043D   26065.02981525 -.00000045  00000+0  67373-3 0  9993
2 25886  51.9973 280.1939 0003716 151.1212 357.5804 11.27671043148981
GLOBALSTAR M058         
1 25907U 99049A   26065.42571658 -.00000049  00000+0  48329-3 0  9993
2 25907  51.9931 128.9219 0002267  68.4280 291.6796 11.93208207572849
GLOBALSTAR M050         
1 25908U 99049B   26065.30183900 -.00000061  00000+0  30406-3 0  9991
2 25908  51.9982 117.3444 0009348 191.8765 247.3390 12.07465387179856
GLOBALSTAR M033         
1 25909U 99049C   26065.45949631 -.00000130  00000+0 -36578-3 0  9993
2 25909  51.9940 330.6325 0015080  83.3559 276.9005 12.20304265567769
GLOBALSTAR M055         
1 25910U 99049D   26065.44944543 -.00000052  00000+0  36126-3 0  9992
2 25910  52.0045 328.6353 0006711 322.3810  37.6572 12.29441425200544
GLOBALSTAR M057         
1 25943U 99058A   26065.64037399 -.00000046  00000+0  43018-3 0  9993
2 25943  52.0007 323.3573 0002135 179.3597 180.7256 12.24834942199093
GLOBALSTAR M059         
1 25944U 99058B   26065.46869880 -.00000090  00000+0 -43783-4 0  9992
2 25944  52.0000 217.6063 0001271 119.6294 275.2443 11.99994838605538
GLOBALSTAR M056         
1 25945U 99058C   26065.66328782 -.00000122  00000+0 -40516-3 0  9992
2 25945  51.9946 212.3133 0000960  35.6354 337.6363 12.04785933194262
GLOBALSTAR M031         
1 25946U 99058D   26065.47162438  .00000029  00000+0  12170-2 0  9994
2 25946  51.9954  89.4516 0001162   4.7934 143.8424 12.16050322196454
GLOBALSTAR M039         
1 25961U 99062A   26065.64563635 -.00000086  00000+0  10154-3 0  9994
2 25961  51.9836 189.3049 0002655 191.5578 168.5228 12.62342751213365
GLOBALSTAR M034         
1 25962U 99062B   26065.34662865 -.00000088  00000+0 -11504-3 0  9990
2 25962  51.9887  49.9153 0014146 176.1689 327.8554 11.79455981169324
GLOBALSTAR M029         
1 25963U 99062C   26065.42870754 -.00000055  00000+0  38576-3 0  9999
2 25963  51.9791 105.5262 0002252 263.1019 201.1131 11.99908833200601
GLOBALSTAR M061         
1 25964U 99062D   26065.49632637 -.00000088  00000+0 -12568-3 0  9993
2 25964  51.9767 237.0478 0006963  98.9599 294.5723 11.76778442152060
