[{"OBJECT_NAME":"GLOBALSTAR M024","OBJECT_ID":"1999-043A","EPOCH":"2026-03-06T11:16:24.041280","MEAN_MOTION":11.10172167,"ECCENTRICITY":0.00021825,"INCLINATION":52.0012,"RA_OF_ASC_NODE":148.8184,"ARG_OF_PERICENTER":156.7993,"MEAN_ANOMALY":216.7677,"EPHEMERIS_TYPE":0,"CLASSIFICATION_TYPE":"U","NORAD_CAT_ID":25883,"ELEMENT_SET_NO":999,"REV_AT_EPOCH":14399,"BSTAR":0.00090346036,"MEAN_MOTION_DOT":-3.9e-7,"MEAN_MOTION_DDOT":0},{"OBJECT_NAME":"GLOBALSTAR M027","OBJECT_ID":"1999-043B","EPOCH":"2026-03-06T10:32:04.333920","MEAN_MOTION":11.0437359,"ECCENTRICITY":0.00219061,"INCLINATION":52.0187,"RA_OF_ASC_NODE":234.3013,"ARG_OF_PERICENTER":56.7313,"MEAN_ANOMALY":303.5575,"EPHEMERIS_TYPE":0,"CLASSIFICATION_TYPE":"U","NORAD_CAT_ID":25884,"ELEMENT_SET_NO":999,"REV_AT_EPOCH":17021,"BSTAR":0.00060736918,"MEAN_MOTION_DOT":-4.8e-7,"MEAN_MOTION_DDOT":0},{"OBJECT_NAME":"GLOBALSTAR M054","OBJECT_ID":"1999-043C","EPOCH":"2026-03-06T15:19:37.337376","MEAN_MOTION":11.39224898,"ECCENTRICITY":0.00040407,"INCLINATION":52.0164,"RA_OF_ASC_NODE":317.1114,"ARG_OF_PERICENTER":272.9018,"MEAN_ANOMALY":99.4225,"EPHEMERIS_TYPE":0,"CLASSIFICATION_TYPE":"U","NORAD_CAT_ID":25885,"ELEMENT_SET_NO":999,"REV_AT_EPOCH":14896,"BSTAR":0.00048471547,"MEAN_MOTION_DOT":-5.2e-7,"MEAN_MOTION_DDOT":0},{"OBJECT_NAME":"GLOBALSTAR M053","OBJECT_ID":"1999-043D","EPOCH":"2026-03-06T00:42:56.037600","MEAN_MOTION":11.27671043,"ECCENTRICITY":0.00037166,"INCLINATION":51.9973,"RA_OF_ASC_NODE":280.1939,"ARG_OF_PERICENTER":151.1212,"MEAN_ANOMALY":357.5804,"EPHEMERIS_TYPE":0,"CLASSIFICATION_TYPE":"U","NORAD_CAT_ID":25886,"ELEMENT_SET_NO":999,"REV_AT_EPOCH":14898,"BSTAR":0.00067373437,"MEAN_MOTION_DOT":-4.5e-7,"MEAN_MOTION_DDOT":0},{"OBJECT_NAME":"GLOBALSTAR M058","OBJECT_ID":"1999-049A","EPOCH":"2026-03-06T10:13:01.912512","MEAN_MOTION":11.93208207,"ECCENTRICITY":0.00022671,"INCLINATION":51.9931,"RA_OF_ASC_NODE":128.9219,"ARG_OF_PERICENTER":68.428,"MEAN_ANOMALY":291.6796,"EPHEMERIS_TYPE":0,"CLASSIFICATION_TYPE":"U","NORAD_CAT_ID":25907,"ELEMENT_SET_NO":999,"REV_AT_EPOCH":57284,"BSTAR":0.00048328992,"MEAN_MOTION_DOT":-4.9e-7,"MEAN_MOTION_DDOT":0},{"OBJECT_NAME":"GLOBALSTAR M050","OBJECT_ID":"1999-049B","EPOCH":"2026-03-06T07:14:38.889600","MEAN_MOTION":12.07465387,"ECCENTRICITY":0.00093488,"INCLINATION":51.9982,"RA_OF_ASC_NODE":117.3444,"ARG_OF_PERICENTER":191.8765,"MEAN_ANOMALY":247.339,"EPHEMERIS_TYPE":0,"CLASSIFICATION_TYPE":"U","NORAD_CAT_ID":25908,"ELEMENT_SET_NO":999,"REV_AT_EPOCH":17985,"BSTAR":0.00030405919,"MEAN_MOTION_DOT":-6.1e-7,"MEAN_MOTION_DDOT":0},{"OBJECT_NAME":"GLOBALSTAR M033","OBJECT_ID":"1999-049C","EPOCH":"2026-03-06T11:01:40.481184","MEAN_MOTION":12.20304265,"ECCENTRICITY":0.00150807,"INCLINATION":51.994,"RA_OF_ASC_NODE":330.6325,"ARG_OF_PERICENTER":83.3559,"MEAN_ANOMALY":276.9005,"EPHEMERIS_TYPE":0,"CLASSIFICATION_TYPE":"U","NORAD_CAT_ID":25909,"ELEMENT_SET_NO":999,"REV_AT_EPOCH":56776,"BSTAR":-0.0003657781,"MEAN_MOTION_DOT":-1.3e-6,"MEAN_MOTION_DDOT":0},{"OBJECT_NAME":"GLOBALSTAR M055","OBJECT_ID":"1999-049D","EPOCH":"2026-03-06T10:47:12.085152","MEAN_MOTION":12.29441425,"ECCENTRICITY":0.00067112,"INCLINATION":52.0045,"RA_OF_ASC_NODE":328.6353,"ARG_OF_PERICENTER":322.381,"MEAN_ANOMALY":37.6572,"EPHEMERIS_TYPE":0,"CLASSIFICATION_TYPE":"U","NORAD_CAT_ID":25910,"ELEMENT_SET_NO":999,"REV_AT_EPOCH":20054,"BSTAR":0.00036126295,"MEAN_MOTION_DOT":-5.2e-7,"MEAN_MOTION_DDOT":0},{"OBJECT_NAME":"GLOBALSTAR M057","OBJECT_ID":"1999-058A","EPOCH":"2026-03-06T15:22:08.312736","MEAN_MOTION":12.24834942,"ECCENTRICITY":0.00021354,"INCLINATION":52.0007,"RA_OF_ASC_NODE":323.3573,"ARG_OF_PERICENTER":179.3597,"MEAN_ANOMALY":180.7256,"EPHEMERIS_TYPE":0,"CLASSIFICATION_TYPE":"U","NORAD_CAT_ID":25943,"ELEMENT_SET_NO":999,"REV_AT_EPOCH":19909,"BSTAR":0.0004301785,"MEAN_MOTION_DOT":-4.6e-7,"MEAN_MOTION_DDOT":0},{"OBJECT_NAME":"GLOBALSTAR M059","OBJECT_ID":"1999-058B","EPOCH":"2026-03-06T11:14:55.576320","MEAN_MOTION":11.99994838,"ECCENTRICITY":0.0001271,"INCLINATION":52,"RA_OF_ASC_NODE":217.6063,"ARG_OF_PERICENTER":119.6294,"MEAN_ANOMALY":275.2443,"EPHEMERIS_TYPE":0,"CLASSIFICATION_TYPE":"U","NORAD_CAT_ID":25944,"ELEMENT_SET_NO":999,"REV_AT_EPOCH":60553,"BSTAR":-4.378253e-5,"MEAN_MOTION_DOT":-9.0e-7,"MEAN_MOTION_DDOT":0},{"OBJECT_NAME":"GLOBALSTAR M056","OBJECT_ID":"1999-058C","EPOCH":"2026-03-06T15:55:08.067648","MEAN_MOTION":12.04785933,"ECCENTRICITY":9.607e-5,"INCLINATION":51.9946,"RA_OF_ASC_NODE":212.3133,"ARG_OF_PERICENTER":35.6354,"MEAN_ANOMALY":337.6363,"EPHEMERIS_TYPE":0,"CLASSIFICATION_TYPE":"U","NORAD_CAT_ID":25945,"ELEMENT_SET_NO":999,"REV_AT_EPOCH":19426,"BSTAR":-0.00040515974,"MEAN_MOTION_DOT":-1.22e-6,"MEAN_MOTION_DDOT":0},{"OBJECT_NAME":"GLOBALSTAR M031","OBJECT_ID":"1999-058D","EPOCH":"2026-03-06T11:19:08.346432","MEAN_MOTION":12.16050322,"ECCENTRICITY":0.00011625,"INCLINATION":51.9954,"RA_OF_ASC_NODE":89.4516,"ARG_OF_PERICENTER":4.7934,"MEAN_ANOMALY":143.8424,"EPHEMERIS_TYPE":0,"CLASSIFICATION_TYPE":"U","NORAD_CAT_ID":25946,"ELEMENT_SET_NO":999,"REV_AT_EPOCH":19645,"BSTAR":0.0012170253,"MEAN_MOTION_DOT":2.9e-7,"MEAN_MOTION_DDOT":0},{"OBJECT_NAME":"GLOBALSTAR M039","OBJECT_ID":"1999-062A","EPOCH":"2026-03-06T15:29:42.980640","MEAN_MOTION":12.62342751,"ECCENTRICITY":0.00026551,"INCLINATION":51.9836,"RA_OF_ASC_NODE":189.3049,"ARG_OF_PERICENTER":191.5578,"MEAN_ANOMALY":168.5228,"EPHEMERIS_TYPE":0,"CLASSIFICATION_TYPE":"U","NORAD_CAT_ID":25961,"ELEMENT_SET_NO":999,"REV_AT_EPOCH":21336,"BSTAR":0.0001015437,"MEAN_MOTION_DOT":-8.6e-7,"MEAN_MOTION_DDOT":0},{"OBJECT_NAME":"GLOBALSTAR M034","OBJECT_ID":"1999-062B","EPOCH":"2026-03-06T08:19:08.715360","MEAN_MOTION":11.79455981,"ECCENTRICITY":0.00141465,"INCLINATION":51.9887,"RA_OF_ASC_NODE":49.9153,"ARG_OF_PERICENTER":176.1689,"MEAN_ANOMALY":327.8554,"EPHEMERIS_TYPE":0,"CLASSIFICATION_TYPE":"U","NORAD_CAT_ID":25962,"ELEMENT_SET_NO":999,"REV_AT_EPOCH":16932,"BSTAR":-0.00011503521,"MEAN_MOTION_DOT":-8.8e-7,"MEAN_MOTION_DDOT":0},{"OBJECT_NAME":"GLOBALSTAR M029","OBJECT_ID":"1999-062C","EPOCH":"2026-03-06T10:17:20.331456","MEAN_MOTION":11.99908833,"ECCENTRICITY":0.0002252,"INCLINATION":51.9791,"RA_OF_ASC_NODE":105.5262,"ARG_OF_PERICENTER":263.1019,"MEAN_ANOMALY":201.1131,"EPHEMERIS_TYPE":0,"CLASSIFICATION_TYPE":"U","NORAD_CAT_ID":25963,"ELEMENT_SET_NO":999,"REV_AT_EPOCH":20060,"BSTAR":0.00038575862,"MEAN_MOTION_DOT":-5.5e-7,"MEAN_MOTION_DDOT":0},{"OBJECT_NAME":"GLOBALSTAR M061","OBJECT_ID":"1999-062D","EPOCH":"2026-03-06T11:54:42.598368","MEAN_MOTION":11.76778442,"ECCENTRICITY":0.00069632,"INCLINATION":51.9767,"RA_OF_ASC_NODE":237.0478,"ARG_OF_PERICENTER":98.9599,"MEAN_ANOMALY":294.5723,"EPHEMERIS_TYPE":0,"CLASSIFICATION_TYPE":"U","NORAD_CAT_ID":25964,"ELEMENT_SET_NO":999,"REV_AT_EPOCH":15206,"BSTAR":-0.00012567971,"MEAN_MOTION_DOT":-8.8e-7,"MEAN_MOTION_DDOT":0}]
